; ===============================================
; Combined G-code generated by UI.py
; Time: 2026-04-27 22:08:01
; Total chars: 32
; Missing chars: 0
; Missing list: None
; Draw length: 589.102 mm
; Travel length: 713.465 mm
; ===============================================
G21 ; mm
G90 ; absolute
G0 F4000.0
G1 F1800.0
G0 Z5.000
G0 X2.381 Y5.000
G1 Z0.000
G1 X1.171 Y3.651
G1 X0.357 Y3.056
G1 X0.179 Y2.837
G0 Z5.000
G0 X2.302 Y4.901
G1 Z0.000
G1 X2.460 Y4.762
G1 X2.778 Y3.155
G0 Z5.000
G0 X3.532 Y4.623
G1 Z0.000
G1 X4.067 Y4.127
G1 X4.246 Y3.730
G1 X4.385 Y3.651
G0 Z5.000
G0 X1.806 Y3.710
G1 Z0.000
G1 X1.806 Y2.917
G1 X2.778 Y3.155
G1 X3.353 Y3.313
G1 X3.472 Y3.413
G0 Z5.000
G0 X2.763 Y3.135
G1 Z0.000
G1 X3.009 Y2.024
G1 X3.234 Y1.627
G1 X3.194 Y1.508
G0 Z5.000
G0 X0.000 Y2.798
G1 Z0.000
G1 X0.179 Y2.837
G1 X0.496 Y2.798
G1 X1.786 Y2.897
G1 X1.786 Y2.500
G1 X1.845 Y2.361
G0 Z5.000
G0 X2.044 Y2.480
G1 Z0.000
G1 X1.845 Y2.361
G1 X1.746 Y2.163
G1 X1.786 Y1.528
G1 X1.667 Y0.992
G0 Z5.000
G0 X3.234 Y1.607
G1 Z0.000
G1 X3.413 Y1.706
G1 X4.048 Y2.242
G0 Z5.000
G0 X1.735 Y2.158
G1 Z0.000
G1 X1.330 Y2.118
G1 X0.858 Y1.888
G1 X0.554 Y1.522
G1 X0.605 Y1.090
G1 X0.925 Y0.741
G1 X1.340 Y0.651
G1 X1.673 Y0.996
G0 Z5.000
G0 X1.667 Y0.992
G1 Z0.000
G1 X2.103 Y0.893
G1 X2.560 Y1.032
G1 X3.194 Y1.508
G1 X3.294 Y1.369
G1 X3.671 Y0.357
G1 X3.968 Y0.000
G1 X4.107 Y0.000
G0 Z5.000
G0 X6.500 Y4.628
G1 Z0.000
G1 X6.630 Y3.551
G1 X6.556 Y3.142
G0 Z5.000
G0 X6.947 Y4.831
G1 Z0.000
G1 X7.395 Y4.867
G1 X7.832 Y5.000
G1 X8.282 Y4.887
G1 X8.530 Y4.567
G1 X8.520 Y4.114
G1 X8.172 Y3.217
G0 Z5.000
G0 X7.020 Y3.885
G1 Z0.000
G1 X7.689 Y3.922
G0 Z5.000
G0 X7.076 Y3.346
G1 Z0.000
G1 X7.708 Y3.346
G0 Z5.000
G0 X7.838 Y3.086
G1 Z0.000
G1 X7.949 Y3.067
G1 X8.172 Y3.216
G0 Z5.000
G0 X5.775 Y2.417
G1 Z0.000
G1 X7.448 Y2.621
G1 X7.541 Y2.603
G1 X7.726 Y2.714
G1 X8.451 Y2.937
G0 Z5.000
G0 X7.538 Y2.603
G1 Z0.000
G1 X7.586 Y2.370
G1 X7.567 Y1.896
G1 X7.301 Y1.006
G0 Z5.000
G0 X6.593 Y1.878
G1 Z0.000
G1 X6.500 Y1.859
G1 X5.775 Y0.782
G1 X5.385 Y0.503
G0 Z5.000
G0 X7.633 Y1.711
G1 Z0.000
G1 X7.726 Y1.674
G1 X8.228 Y1.822
G1 X8.302 Y1.785
G0 Z5.000
G0 X6.204 Y1.080
G1 Z0.000
G1 X6.762 Y1.011
G1 X7.845 Y0.446
G1 X8.409 Y0.353
G1 X9.686 Y0.000
G1 X10.073 Y0.321
G0 Z5.000
G0 X11.308 Y4.745
G1 Z0.000
G1 X11.425 Y3.433
G1 X11.366 Y3.061
G0 Z5.000
G0 X11.954 Y4.785
G1 Z0.000
G1 X12.729 Y4.461
G1 X13.354 Y4.964
G1 X14.036 Y5.000
G1 X14.780 Y4.872
G1 X15.139 Y4.439
G1 X14.726 Y3.860
G1 X14.128 Y3.453
G0 Z5.000
G0 X13.188 Y4.236
G1 Z0.000
G1 X13.070 Y4.158
G1 X12.933 Y3.688
G0 Z5.000
G0 X12.932 Y3.694
G1 Z0.000
G1 X13.129 Y3.657
G1 X13.513 Y3.703
G1 X14.222 Y3.978
G0 Z5.000
G0 X12.542 Y3.590
G1 Z0.000
G1 X12.835 Y3.590
G1 X12.581 Y2.787
G0 Z5.000
G0 X12.933 Y3.688
G1 Z0.000
G1 X12.835 Y3.590
G0 Z5.000
G0 X12.590 Y2.779
G1 Z0.000
G1 X13.299 Y2.707
G1 X14.204 Y2.707
G1 X14.749 Y2.197
G1 X14.755 Y1.385
G1 X14.431 Y0.619
G1 X13.843 Y0.093
G1 X13.050 Y0.000
G0 Z5.000
G0 X11.073 Y1.063
G1 Z0.000
G1 X12.835 Y1.318
G1 X13.580 Y1.572
G1 X13.717 Y1.553
G0 Z5.000
G0 X17.769 Y5.000
G1 Z0.000
G1 X18.068 Y4.662
G1 X18.068 Y4.602
G0 Z5.000
G0 X16.397 Y3.926
G1 Z0.000
G1 X16.457 Y2.952
G1 X16.377 Y2.713
G1 X16.278 Y2.654
G0 Z5.000
G0 X16.954 Y3.847
G1 Z0.000
G1 X18.505 Y3.946
G1 X19.141 Y3.847
G1 X19.261 Y3.767
G0 Z5.000
G0 X18.048 Y3.051
G1 Z0.000
G1 X18.624 Y3.290
G1 X19.261 Y3.747
G0 Z5.000
G0 X17.272 Y2.912
G1 Z0.000
G1 X17.968 Y2.912
G1 X18.048 Y2.972
G1 X18.346 Y2.773
G0 Z5.000
G0 X18.353 Y2.769
G1 Z0.000
G1 X18.298 Y2.576
G1 X17.933 Y2.029
G1 X17.872 Y1.843
G1 X17.905 Y1.648
G1 X18.069 Y1.440
G0 Z5.000
G0 X18.346 Y2.773
G1 Z0.000
G1 X18.445 Y2.813
G0 Z5.000
G0 X16.139 Y1.083
G1 Z0.000
G1 X16.258 Y1.059
G1 X16.475 Y1.224
G1 X16.721 Y1.320
G1 X18.069 Y1.427
G0 Z5.000
G0 X18.068 Y1.441
G1 Z0.000
G1 X18.167 Y1.341
G0 Z5.000
G0 X16.238 Y1.063
G1 Z0.000
G1 X16.546 Y0.536
G1 X16.998 Y0.314
G1 X18.010 Y0.000
G1 X18.367 Y0.297
G1 X18.377 Y0.853
G1 X18.165 Y1.338
G0 Z5.000
G0 X18.167 Y1.341
G1 Z0.000
G1 X18.346 Y1.401
G1 X19.161 Y1.401
G0 Z5.000
G0 X22.512 Y5.000
G1 Z0.000
G1 X22.483 Y3.596
G1 X22.541 Y3.421
G0 Z5.000
G0 X20.904 Y3.129
G1 Z0.000
G1 X21.079 Y3.070
G1 X22.483 Y3.363
G1 X22.541 Y3.421
G1 X22.746 Y3.421
G1 X23.418 Y3.743
G1 X23.565 Y3.713
G0 Z5.000
G0 X22.483 Y3.363
G1 Z0.000
G1 X22.541 Y3.158
G1 X22.512 Y2.018
G1 X22.571 Y1.813
G1 X22.454 Y1.550
G1 X22.278 Y0.205
G1 X22.161 Y0.000
G0 Z5.000
G0 X24.354 Y3.772
G1 Z0.000
G1 X24.149 Y1.491
G1 X24.003 Y0.965
G1 X23.828 Y0.731
G0 Z5.000
G0 X22.132 Y2.135
G1 Z0.000
G1 X20.758 Y0.731
G1 X20.407 Y0.556
G1 X20.261 Y0.585
G0 Z5.000
G0 X22.572 Y1.840
G1 Z0.000
G1 X22.753 Y1.764
G1 X23.367 Y1.206
G1 X23.542 Y1.153
G1 X23.744 Y1.193
G0 Z5.000
G0 X24.734 Y3.772
G1 Z0.000
G1 X25.553 Y3.801
G1 X25.699 Y3.743
G0 Z5.000
G0 X25.700 Y3.742
G1 Z0.000
G1 X26.066 Y2.879
G1 X25.787 Y1.779
G1 X25.800 Y0.665
G1 X26.602 Y0.080
G1 X27.613 Y0.491
G1 X27.306 Y2.485
G0 Z5.000
G0 X29.286 Y4.821
G1 Z0.000
G1 X29.385 Y4.008
G1 X29.345 Y3.750
G0 Z5.000
G0 X29.683 Y4.782
G1 Z0.000
G1 X30.278 Y4.762
G1 X30.337 Y4.722
G1 X30.457 Y4.603
G1 X30.080 Y4.167
G1 X30.000 Y3.988
G0 Z5.000
G0 X31.072 Y5.000
G1 Z0.000
G1 X31.091 Y4.226
G1 X31.052 Y4.087
G1 X30.913 Y4.008
G0 Z5.000
G0 X31.385 Y4.877
G1 Z0.000
G1 X31.603 Y4.936
G1 X31.805 Y4.881
G1 X31.959 Y4.747
G1 X32.034 Y4.569
G1 X31.997 Y4.379
G1 X31.819 Y4.214
G1 X31.468 Y4.107
G0 Z5.000
G0 X29.583 Y3.770
G1 Z0.000
G1 X29.881 Y3.889
G1 X30.000 Y3.988
G1 X30.238 Y3.948
G0 Z5.000
G0 X31.310 Y4.107
G1 Z0.000
G1 X31.488 Y4.107
G1 X31.568 Y4.067
G1 X31.826 Y4.087
G0 Z5.000
G0 X30.397 Y3.552
G1 Z0.000
G1 X30.417 Y3.452
G1 X30.159 Y3.056
G1 X30.139 Y2.937
G0 Z5.000
G0 X31.230 Y3.591
G1 Z0.000
G1 X31.449 Y3.254
G1 X31.488 Y3.056
G0 Z5.000
G0 X28.613 Y1.434
G1 Z0.000
G1 X28.882 Y1.499
G1 X29.332 Y1.845
G1 X29.709 Y2.303
G1 X29.960 Y2.798
G1 X30.139 Y2.941
G1 X30.310 Y2.887
G1 X30.483 Y2.906
G1 X30.991 Y3.120
G1 X31.153 Y3.153
G1 X31.309 Y3.121
G0 Z5.000
G0 X29.028 Y2.718
G1 Z0.000
G1 X29.802 Y2.837
G1 X29.960 Y2.798
G0 Z5.000
G0 X30.002 Y2.299
G1 Z0.000
G1 X30.171 Y2.356
G1 X30.341 Y2.282
G1 X30.877 Y1.774
G1 X31.070 Y1.678
G1 X31.273 Y1.702
G0 Z5.000
G0 X28.909 Y1.230
G1 Z0.000
G1 X29.028 Y0.437
G1 X28.909 Y0.337
G0 Z5.000
G0 X29.385 Y1.151
G1 Z0.000
G1 X29.822 Y1.111
G1 X29.881 Y1.071
G1 X30.000 Y0.933
G1 X29.663 Y0.556
G1 X29.643 Y0.456
G0 Z5.000
G0 X30.576 Y1.091
G1 Z0.000
G1 X30.655 Y0.357
G1 X30.615 Y0.238
G1 X30.496 Y0.179
G0 Z5.000
G0 X30.938 Y0.990
G1 Z0.000
G1 X31.146 Y1.044
G1 X31.397 Y0.991
G1 X31.591 Y0.866
G1 X31.620 Y0.713
G1 X31.119 Y0.182
G0 Z5.000
G0 X29.226 Y0.238
G1 Z0.000
G1 X29.484 Y0.337
G1 X29.643 Y0.456
G1 X29.921 Y0.417
G0 Z5.000
G0 X30.794 Y0.000
G1 Z0.000
G1 X30.933 Y0.000
G1 X31.131 Y0.179
G1 X31.191 Y0.139
G1 X31.429 Y0.179
G1 X31.508 Y0.139
G0 Z5.000
G0 X35.955 Y5.000
G1 Z0.000
G1 X35.846 Y4.170
G1 X35.611 Y3.358
G1 X35.269 Y2.573
G1 X34.839 Y1.827
G1 X34.340 Y1.128
G1 X33.786 Y0.493
G1 X33.034 Y0.182
G0 Z5.000
G0 X35.429 Y1.836
G1 Z0.000
G1 X35.857 Y1.570
G1 X37.049 Y0.425
G1 X37.530 Y0.184
G1 X38.096 Y0.125
G1 X38.547 Y0.000
G0 Z5.000
G0 X2.549 Y-9.000
G1 Z0.000
G1 X2.431 Y-9.882
G0 Z5.000
G0 X1.157 Y-10.157
G1 Z0.000
G1 X2.098 Y-10.000
G1 X2.235 Y-10.000
G1 X2.274 Y-10.039
G0 Z5.000
G0 X2.431 Y-9.882
G1 Z0.000
G1 X2.274 Y-10.039
G1 X2.078 Y-10.627
G0 Z5.000
G0 X2.431 Y-9.882
G1 Z0.000
G1 X2.725 Y-9.824
G1 X2.804 Y-9.863
G0 Z5.000
G0 X2.078 Y-10.627
G1 Z0.000
G1 X2.274 Y-10.647
G1 X2.529 Y-10.529
G1 X2.647 Y-10.549
G0 Z5.000
G0 X2.078 Y-10.627
G1 Z0.000
G1 X1.960 Y-10.745
G1 X1.960 Y-10.824
G1 X1.706 Y-11.333
G1 X1.490 Y-11.490
G1 X1.215 Y-11.949
G1 X0.851 Y-12.394
G1 X0.637 Y-12.571
G1 X0.400 Y-12.692
G1 X0.134 Y-12.698
G0 Z5.000
G0 X1.255 Y-10.765
G1 Z0.000
G1 X1.823 Y-10.686
G1 X1.960 Y-10.745
G0 Z5.000
G0 X1.706 Y-11.333
G1 Z0.000
G1 X1.843 Y-11.373
G1 X2.157 Y-11.294
G1 X2.333 Y-11.196
G1 X3.392 Y-10.863
G1 X3.608 Y-10.706
G0 Z5.000
G0 X2.157 Y-11.294
G1 Z0.000
G1 X2.215 Y-11.412
G0 Z5.000
G0 X0.000 Y-11.646
G1 Z0.000
G1 X0.433 Y-11.641
G1 X1.081 Y-11.466
G1 X1.495 Y-11.480
G0 Z5.000
G0 X2.215 Y-11.412
G1 Z0.000
G1 X3.470 Y-11.961
G1 X4.235 Y-12.039
G0 Z5.000
G0 X2.117 Y-11.451
G1 Z0.000
G1 X2.215 Y-11.412
G0 Z5.000
G0 X1.568 Y-12.529
G1 Z0.000
G1 X1.588 Y-13.706
G1 X1.549 Y-13.824
G1 X1.451 Y-13.882
G0 Z5.000
G0 X1.902 Y-12.490
G1 Z0.000
G1 X2.143 Y-12.511
G1 X3.052 Y-12.384
G1 X3.357 Y-12.526
G1 X3.400 Y-12.860
G1 X3.331 Y-13.277
G1 X3.350 Y-13.647
G0 Z5.000
G0 X2.235 Y-13.275
G1 Z0.000
G1 X2.804 Y-13.216
G0 Z5.000
G0 X2.195 Y-13.996
G1 Z0.000
G1 X2.490 Y-13.882
G1 X2.968 Y-13.814
G1 X3.271 Y-13.716
G1 X3.353 Y-13.647
G0 Z5.000
G0 X3.274 Y-13.725
G1 Z0.000
G1 X3.313 Y-13.863
G1 X3.255 Y-13.941
G1 X3.274 Y-14.000
G0 Z5.000
G0 X3.353 Y-13.647
G1 Z0.000
G1 X3.470 Y-13.667
G0 Z5.000
G0 X5.779 Y-10.397
G1 Z0.000
G1 X6.199 Y-10.274
G1 X6.699 Y-10.276
G1 X6.978 Y-10.515
G1 X7.020 Y-10.951
G1 X6.692 Y-12.433
G1 X6.703 Y-12.551
G1 X6.584 Y-12.622
G0 Z5.000
G0 X5.377 Y-10.657
G1 Z0.000
G1 X5.377 Y-12.598
G1 X5.235 Y-12.835
G0 Z5.000
G0 X5.850 Y-11.580
G1 Z0.000
G1 X6.348 Y-11.556
G0 Z5.000
G0 X5.637 Y-12.669
G1 Z0.000
G1 X5.732 Y-12.716
G1 X6.679 Y-12.432
G0 Z5.000
G0 X8.241 Y-9.000
G1 Z0.000
G1 X8.407 Y-9.828
G0 Z5.000
G0 X7.436 Y-10.018
G1 Z0.000
G1 X7.531 Y-10.065
G1 X8.359 Y-9.876
G1 X8.407 Y-9.828
G1 X8.975 Y-9.734
G1 X9.377 Y-9.473
G1 X9.425 Y-9.497
G0 Z5.000
G0 X8.359 Y-9.876
G1 Z0.000
G1 X8.431 Y-10.041
G1 X8.525 Y-10.752
G1 X8.715 Y-11.083
G0 Z5.000
G0 X7.200 Y-12.124
G1 Z0.000
G1 X7.673 Y-11.935
G1 X7.744 Y-11.817
G1 X8.738 Y-11.059
G1 X9.496 Y-10.515
G1 X9.590 Y-10.539
G0 Z5.000
G0 X8.691 Y-11.107
G1 Z0.000
G1 X8.904 Y-11.391
G1 X9.259 Y-11.533
G0 Z5.000
G0 X7.673 Y-11.935
G1 Z0.000
G1 X7.791 Y-12.006
G1 X8.312 Y-11.982
G1 X9.092 Y-11.761
G1 X9.211 Y-11.673
G1 X9.277 Y-11.531
G1 X9.330 Y-11.320
G0 Z5.000
G0 X8.329 Y-11.984
G1 Z0.000
G1 X8.233 Y-12.260
G1 X7.927 Y-12.794
G1 X7.082 Y-13.734
G0 Z5.000
G0 X8.667 Y-12.645
G1 Z0.000
G1 X8.809 Y-13.426
G1 X8.880 Y-13.568
G0 Z5.000
G0 X8.876 Y-13.575
G1 Z0.000
G1 X9.326 Y-13.910
G1 X9.874 Y-14.000
G1 X10.452 Y-13.893
G1 X10.984 Y-13.631
G1 X11.279 Y-13.177
G1 X11.097 Y-12.645
G1 X10.849 Y-12.170
G0 Z5.000
G0 X1.528 Y-16.158
G1 Z0.000
G1 X1.706 Y-16.161
G1 X2.249 Y-16.007
G1 X2.427 Y-16.000
G1 X2.594 Y-16.056
G1 X2.742 Y-16.195
G1 X2.850 Y-16.193
G0 Z5.000
G0 X2.740 Y-16.193
G1 Z0.000
G1 X2.188 Y-16.891
G1 X2.170 Y-17.002
G1 X2.280 Y-17.186
G1 X2.280 Y-17.278
G1 X2.391 Y-17.388
G0 Z5.000
G0 X0.901 Y-17.590
G1 Z0.000
G1 X2.207 Y-17.333
G1 X2.280 Y-17.278
G0 Z5.000
G0 X0.846 Y-17.517
G1 Z0.000
G1 X0.919 Y-17.572
G0 Z5.000
G0 X2.372 Y-17.370
G1 Z0.000
G1 X2.464 Y-17.333
G1 X3.108 Y-17.333
G0 Z5.000
G0 X2.391 Y-17.370
G1 Z0.000
G1 X2.556 Y-17.774
G1 X2.556 Y-18.289
G1 X2.354 Y-18.510
G0 Z5.000
G0 X0.809 Y-17.590
G1 Z0.000
G1 X0.901 Y-17.590
G1 X1.182 Y-18.028
G1 X1.597 Y-18.403
G1 X1.839 Y-18.520
G1 X2.095 Y-18.564
G1 X2.358 Y-18.516
G0 Z5.000
G0 X1.085 Y-19.061
G1 Z0.000
G1 X2.611 Y-18.969
G1 X3.347 Y-19.135
G0 Z5.000
G0 X0.570 Y-19.043
G1 Z0.000
G1 X0.754 Y-20.165
G1 X0.699 Y-20.330
G0 Z5.000
G0 X3.375 Y-19.157
G1 Z0.000
G1 X3.444 Y-19.410
G1 X3.376 Y-19.664
G1 X3.207 Y-19.900
G1 X2.975 Y-20.097
G1 X2.711 Y-20.233
G1 X2.442 Y-20.279
G1 X2.191 Y-20.208
G1 X2.078 Y-20.202
G0 Z5.000
G0 X1.618 Y-19.484
G1 Z0.000
G1 X1.637 Y-19.963
G1 X1.692 Y-20.128
G1 X1.637 Y-20.183
G0 Z5.000
G0 X2.538 Y-19.466
G1 Z0.000
G1 X2.446 Y-19.521
G1 X2.317 Y-19.999
G1 X2.188 Y-20.202
G0 Z5.000
G0 X0.000 Y-20.717
G1 Z0.000
G1 X0.745 Y-21.000
G1 X1.304 Y-20.842
G1 X1.829 Y-20.601
G1 X2.422 Y-20.507
G1 X3.734 Y-20.542
G1 X4.296 Y-20.701
G0 Z5.000
G0 X5.630 Y-16.605
G1 Z0.000
G1 X5.743 Y-16.588
G1 X5.955 Y-16.697
G1 X6.228 Y-17.111
G0 Z5.000
G0 X5.471 Y-18.131
G1 Z0.000
G1 X5.569 Y-18.112
G1 X5.999 Y-18.483
G1 X6.058 Y-18.737
G0 Z5.000
G0 X6.567 Y-18.931
G1 Z0.000
G1 X6.517 Y-19.265
G1 X6.320 Y-19.550
G1 X5.464 Y-20.291
G1 X5.298 Y-20.560
G1 X5.296 Y-20.868
G0 Z5.000
G0 X7.683 Y-16.000
G1 Z0.000
G1 X7.737 Y-16.373
G1 X7.658 Y-16.756
G1 X7.502 Y-17.138
G1 X7.128 Y-17.853
G1 X6.900 Y-18.159
G1 X6.626 Y-18.414
G0 Z5.000
G0 X7.623 Y-19.305
G1 Z0.000
G1 X7.623 Y-20.576
G1 X7.544 Y-20.752
G1 X7.407 Y-20.830
G0 Z5.000
G0 X8.913 Y-16.117
G1 Z0.000
G1 X8.816 Y-16.762
G1 X8.835 Y-17.016
G0 Z5.000
G0 X8.757 Y-17.095
G1 Z0.000
G1 X8.835 Y-17.016
G1 X8.992 Y-17.016
G1 X9.402 Y-16.782
G1 X9.500 Y-16.801
G0 Z5.000
G0 X7.583 Y-17.251
G1 Z0.000
G1 X7.681 Y-17.290
G1 X8.659 Y-17.075
G1 X8.757 Y-17.095
G0 Z5.000
G0 X8.759 Y-17.097
G1 Z0.000
G1 X8.768 Y-17.363
G1 X8.717 Y-17.639
G1 X8.578 Y-17.865
G1 X8.467 Y-17.939
G0 Z5.000
G0 X6.860 Y-18.601
G1 Z0.000
G1 X8.816 Y-18.346
G1 X9.461 Y-18.131
G1 X9.676 Y-18.131
G0 Z5.000
G0 X8.053 Y-19.461
G1 Z0.000
G1 X8.680 Y-19.179
G1 X9.168 Y-19.409
G1 X9.239 Y-19.899
G1 X9.252 Y-20.446
G1 X8.998 Y-20.861
G1 X8.493 Y-21.000
G1 X7.955 Y-20.987
G0 Z5.000
G0 X12.500 Y-16.000
G1 Z0.000
G1 X12.441 Y-16.196
G1 X11.911 Y-17.078
G1 X11.892 Y-17.196
G1 X11.068 Y-18.137
G1 X10.774 Y-18.294
G1 X10.676 Y-18.275
G0 Z5.000
G0 X11.897 Y-17.207
G1 Z0.000
G1 X12.626 Y-17.168
G1 X12.896 Y-17.319
G1 X12.870 Y-17.592
G1 X12.381 Y-18.232
G1 X12.262 Y-18.564
G0 Z5.000
G0 X13.951 Y-17.118
G1 Z0.000
G1 X13.813 Y-17.255
G1 X13.696 Y-17.745
G0 Z5.000
G0 X14.402 Y-16.804
G1 Z0.000
G1 X14.519 Y-16.882
G1 X14.637 Y-17.216
G1 X14.598 Y-17.471
G0 Z5.000
G0 X13.696 Y-17.745
G1 Z0.000
G1 X13.951 Y-17.745
G1 X14.284 Y-17.569
G1 X14.382 Y-17.588
G0 Z5.000
G0 X13.605 Y-17.877
G1 Z0.000
G1 X13.088 Y-18.785
G1 X12.630 Y-19.388
G1 X12.347 Y-19.566
G1 X12.006 Y-19.582
G0 Z5.000
G0 X12.911 Y-17.863
G1 Z0.000
G1 X13.049 Y-17.902
G1 X13.402 Y-17.824
G1 X13.598 Y-17.843
G0 Z5.000
G0 X13.696 Y-17.745
G1 Z0.000
G1 X13.598 Y-17.843
G0 Z5.000
G0 X11.500 Y-18.059
G1 Z0.000
G1 X11.539 Y-18.176
G1 X11.813 Y-18.314
G1 X11.911 Y-18.431
G0 Z5.000
G0 X11.323 Y-18.863
G1 Z0.000
G1 X11.774 Y-18.804
G1 X11.990 Y-18.824
G0 Z5.000
G0 X12.264 Y-18.569
G1 Z0.000
G1 X12.480 Y-18.588
G0 Z5.000
G0 X12.264 Y-18.569
G1 Z0.000
G1 X11.990 Y-18.824
G0 Z5.000
G0 X13.402 Y-18.804
G1 Z0.000
G1 X14.029 Y-19.412
G1 X14.186 Y-19.471
G1 X14.303 Y-19.451
G0 Z5.000
G0 X11.990 Y-18.846
G1 Z0.000
G1 X11.943 Y-19.034
G1 X11.712 Y-19.378
G1 X11.367 Y-19.637
G1 X10.993 Y-19.758
G0 Z5.000
G0 X11.558 Y-19.941
G1 Z0.000
G1 X11.500 Y-20.706
G1 X11.402 Y-20.902
G1 X11.421 Y-21.000
G0 Z5.000
G0 X12.480 Y-20.255
G1 Z0.000
G1 X12.852 Y-20.706
G1 X12.852 Y-20.765
G0 Z5.000
G0 X13.480 Y-20.157
G1 Z0.000
G1 X13.460 Y-20.275
G1 X13.656 Y-20.569
G1 X13.637 Y-20.686
G0 Z5.000
G0 X14.558 Y-20.275
G1 Z0.000
G1 X14.813 Y-20.765
G1 X14.813 Y-21.000
G0 Z5.000
G0 X11.303 Y-20.922
G1 Z0.000
G1 X11.402 Y-20.902
G0 Z5.000
G0 X2.549 Y-23.000
G1 Z0.000
G1 X2.431 Y-23.882
G0 Z5.000
G0 X1.157 Y-24.157
G1 Z0.000
G1 X2.098 Y-24.000
G1 X2.235 Y-24.000
G1 X2.274 Y-24.039
G0 Z5.000
G0 X2.431 Y-23.882
G1 Z0.000
G1 X2.274 Y-24.039
G1 X2.078 Y-24.627
G0 Z5.000
G0 X2.431 Y-23.882
G1 Z0.000
G1 X2.725 Y-23.824
G1 X2.804 Y-23.863
G0 Z5.000
G0 X2.078 Y-24.627
G1 Z0.000
G1 X2.274 Y-24.647
G1 X2.529 Y-24.529
G1 X2.647 Y-24.549
G0 Z5.000
G0 X2.078 Y-24.627
G1 Z0.000
G1 X1.960 Y-24.745
G1 X1.960 Y-24.824
G1 X1.706 Y-25.333
G1 X1.490 Y-25.490
G1 X1.215 Y-25.949
G1 X0.851 Y-26.394
G1 X0.637 Y-26.571
G1 X0.400 Y-26.692
G1 X0.134 Y-26.698
G0 Z5.000
G0 X1.255 Y-24.765
G1 Z0.000
G1 X1.823 Y-24.686
G1 X1.960 Y-24.745
G0 Z5.000
G0 X1.706 Y-25.333
G1 Z0.000
G1 X1.843 Y-25.373
G1 X2.157 Y-25.294
G1 X2.333 Y-25.196
G1 X3.392 Y-24.863
G1 X3.608 Y-24.706
G0 Z5.000
G0 X2.157 Y-25.294
G1 Z0.000
G1 X2.215 Y-25.412
G0 Z5.000
G0 X0.000 Y-25.646
G1 Z0.000
G1 X0.433 Y-25.641
G1 X1.081 Y-25.466
G1 X1.495 Y-25.480
G0 Z5.000
G0 X2.215 Y-25.412
G1 Z0.000
G1 X3.470 Y-25.961
G1 X4.235 Y-26.039
G0 Z5.000
G0 X2.117 Y-25.451
G1 Z0.000
G1 X2.215 Y-25.412
G0 Z5.000
G0 X1.568 Y-26.529
G1 Z0.000
G1 X1.588 Y-27.706
G1 X1.549 Y-27.824
G1 X1.451 Y-27.882
G0 Z5.000
G0 X1.902 Y-26.490
G1 Z0.000
G1 X2.143 Y-26.511
G1 X3.052 Y-26.384
G1 X3.357 Y-26.526
G1 X3.400 Y-26.860
G1 X3.331 Y-27.277
G1 X3.350 Y-27.647
G0 Z5.000
G0 X2.235 Y-27.275
G1 Z0.000
G1 X2.804 Y-27.216
G0 Z5.000
G0 X2.195 Y-27.996
G1 Z0.000
G1 X2.490 Y-27.882
G1 X2.968 Y-27.814
G1 X3.271 Y-27.716
G1 X3.353 Y-27.647
G0 Z5.000
G0 X3.274 Y-27.725
G1 Z0.000
G1 X3.313 Y-27.863
G1 X3.255 Y-27.941
G1 X3.274 Y-28.000
G0 Z5.000
G0 X3.353 Y-27.647
G1 Z0.000
G1 X3.470 Y-27.667
G0 Z5.000
G0 X5.486 Y-24.173
G1 Z0.000
G1 X5.458 Y-26.489
G1 X5.347 Y-26.935
G1 X5.235 Y-27.074
G0 Z5.000
G0 X5.877 Y-23.755
G1 Z0.000
G1 X7.160 Y-23.587
G0 Z5.000
G0 X7.162 Y-23.590
G1 Z0.000
G1 X7.632 Y-24.080
G1 X7.827 Y-24.771
G1 X7.778 Y-25.545
G1 X7.514 Y-26.285
G1 X7.064 Y-26.874
G1 X6.459 Y-27.196
G1 X5.726 Y-27.133
G0 Z5.000
G0 X6.044 Y-25.122
G1 Z0.000
G1 X6.769 Y-25.122
G0 Z5.000
G0 X6.016 Y-25.987
G1 Z0.000
G1 X6.741 Y-25.987
G0 Z5.000
G0 X8.864 Y-23.200
G1 Z0.000
G1 X9.232 Y-23.197
G1 X9.636 Y-23.036
G1 X10.040 Y-23.000
G1 X10.278 Y-23.192
G1 X10.303 Y-23.565
G1 X10.171 Y-23.990
G1 X9.942 Y-24.339
G1 X10.005 Y-24.508
G0 Z5.000
G0 X8.527 Y-23.950
G1 Z0.000
G1 X8.846 Y-24.167
G1 X8.863 Y-24.654
G1 X8.304 Y-26.759
G1 X8.318 Y-27.353
G1 X8.634 Y-27.731
G0 Z5.000
G0 X8.638 Y-24.620
G1 Z0.000
G1 X8.778 Y-24.675
G1 X9.698 Y-24.452
G1 X9.782 Y-24.369
G1 X9.949 Y-24.341
G0 Z5.000
G0 X9.922 Y-24.899
G1 Z0.000
G1 X10.061 Y-25.624
G0 Z5.000
G0 X10.675 Y-25.205
G1 Z0.000
G1 X10.619 Y-25.373
G1 X10.256 Y-25.596
G1 X10.089 Y-25.624
G0 Z5.000
G0 X8.806 Y-25.847
G1 Z0.000
G1 X8.945 Y-25.903
G1 X10.033 Y-25.652
G0 Z5.000
G0 X10.005 Y-25.652
G1 Z0.000
G1 X10.245 Y-26.725
G1 X10.438 Y-27.268
G1 X10.750 Y-27.719
G1 X11.217 Y-28.000
G1 X11.748 Y-27.985
G1 X12.229 Y-27.740
G0 Z5.000
G0 X9.113 Y-27.047
G1 Z0.000
G1 X8.973 Y-27.130
G1 X8.834 Y-27.521
G1 X8.666 Y-27.716
G0 Z5.000
G0 X16.016 Y-23.474
G1 Z0.000
G1 X15.670 Y-23.883
G1 X14.641 Y-25.439
G1 X14.239 Y-25.904
G1 X13.774 Y-26.259
G1 X13.229 Y-26.456
G0 Z5.000
G0 X14.277 Y-23.573
G1 Z0.000
G1 X14.415 Y-23.613
G1 X15.798 Y-23.356
G1 X15.996 Y-23.375
G1 X16.134 Y-23.277
G1 X16.609 Y-23.119
G1 X16.727 Y-23.000
G0 Z5.000
G0 X15.996 Y-23.375
G1 Z0.000
G1 X16.016 Y-23.474
G0 Z5.000
G0 X15.166 Y-25.154
G1 Z0.000
G1 X15.304 Y-26.992
G1 X15.166 Y-27.862
G1 X15.047 Y-28.000
G0 Z5.000
G0 X16.154 Y-25.648
G1 Z0.000
G1 X16.905 Y-26.379
G1 X17.261 Y-26.538
G1 X17.380 Y-26.518
G0 Z5.000
G0 X18.380 Y-24.619
G1 Z0.000
G1 X18.497 Y-24.853
G1 X18.614 Y-25.438
G1 X18.594 Y-25.770
G0 Z5.000
G0 X19.100 Y-23.198
G1 Z0.000
G1 X19.087 Y-23.327
G1 X19.212 Y-23.583
G1 X19.458 Y-23.774
G1 X19.722 Y-23.825
G0 Z5.000
G0 X19.413 Y-25.380
G1 Z0.000
G1 X19.413 Y-26.511
G1 X19.335 Y-26.648
G1 X19.257 Y-26.667
G0 Z5.000
G0 X20.341 Y-25.959
G1 Z0.000
G1 X20.335 Y-26.233
G1 X20.189 Y-26.562
G1 X19.419 Y-27.666
G1 X19.137 Y-27.900
G1 X18.811 Y-27.889
G0 Z5.000
G0 X19.979 Y-23.956
G1 Z0.000
G1 X20.077 Y-23.975
G1 X20.389 Y-23.839
G1 X21.442 Y-23.000
G0 Z5.000
G0 X20.155 Y-23.098
G1 Z0.000
G1 X20.447 Y-23.449
G1 X20.603 Y-23.468
G1 X20.701 Y-23.585
G0 Z5.000
G0 X19.121 Y-24.561
G1 Z0.000
G1 X20.720 Y-24.385
G1 X21.540 Y-24.483
G1 X21.618 Y-24.541
G1 X21.793 Y-24.541
G0 Z5.000
G0 X19.784 Y-25.438
G1 Z0.000
G1 X20.330 Y-25.399
G1 X20.681 Y-25.282
G1 X21.426 Y-24.823
G1 X21.635 Y-24.537
G0 Z5.000
G0 X20.681 Y-25.282
G1 Z0.000
G1 X21.208 Y-25.497
G0 Z5.000
G0 X20.274 Y-26.786
G1 Z0.000
G1 X20.508 Y-27.357
G1 X20.987 Y-27.793
G1 X21.595 Y-28.000
G1 X22.202 Y-27.840
G1 X22.620 Y-27.492
G1 X22.433 Y-26.201
G1 X22.083 Y-25.730
G0 Z5.000
G0 X21.206 Y-25.496
G1 Z0.000
G1 X21.172 Y-26.046
G1 X20.939 Y-26.722
G0 Z5.000
G0 X24.164 Y-24.397
G1 Z0.000
G1 X24.583 Y-24.274
G1 X25.084 Y-24.276
G1 X25.363 Y-24.515
G1 X25.404 Y-24.951
G1 X25.077 Y-26.433
G1 X25.087 Y-26.551
G1 X24.969 Y-26.622
G0 Z5.000
G0 X23.762 Y-24.657
G1 Z0.000
G1 X23.762 Y-26.598
G1 X23.620 Y-26.835
G0 Z5.000
G0 X24.235 Y-25.580
G1 Z0.000
G1 X24.732 Y-25.556
G0 Z5.000
G0 X24.022 Y-26.669
G1 Z0.000
G1 X24.117 Y-26.716
G1 X25.063 Y-26.432
G0 Z5.000
G0 X26.626 Y-23.000
G1 Z0.000
G1 X26.791 Y-23.828
G0 Z5.000
G0 X25.821 Y-24.018
G1 Z0.000
G1 X25.916 Y-24.065
G1 X26.744 Y-23.876
G1 X26.791 Y-23.828
G1 X27.359 Y-23.734
G1 X27.762 Y-23.473
G1 X27.809 Y-23.497
G0 Z5.000
G0 X26.744 Y-23.876
G1 Z0.000
G1 X26.815 Y-24.041
G1 X26.910 Y-24.752
G1 X27.099 Y-25.083
G0 Z5.000
G0 X25.584 Y-26.124
G1 Z0.000
G1 X26.058 Y-25.935
G1 X26.129 Y-25.817
G1 X27.123 Y-25.059
G1 X27.880 Y-24.515
G1 X27.975 Y-24.539
G0 Z5.000
G0 X27.075 Y-25.107
G1 Z0.000
G1 X27.288 Y-25.391
G1 X27.643 Y-25.533
G0 Z5.000
G0 X26.058 Y-25.935
G1 Z0.000
G1 X26.176 Y-26.006
G1 X26.697 Y-25.982
G1 X27.477 Y-25.761
G1 X27.596 Y-25.673
G1 X27.662 Y-25.531
G1 X27.715 Y-25.320
G0 Z5.000
G0 X26.714 Y-25.984
G1 Z0.000
G1 X26.618 Y-26.260
G1 X26.311 Y-26.794
G1 X25.466 Y-27.734
G0 Z5.000
G0 X27.052 Y-26.645
G1 Z0.000
G1 X27.194 Y-27.426
G1 X27.265 Y-27.568
G0 Z5.000
G0 X27.260 Y-27.575
G1 Z0.000
G1 X27.711 Y-27.910
G1 X28.258 Y-28.000
G1 X28.836 Y-27.893
G1 X29.369 Y-27.631
G1 X29.664 Y-27.177
G1 X29.482 Y-26.645
G1 X29.233 Y-26.170
G0 Z5.000
G0 X1.953 Y-30.000
G1 Z0.000
G1 X1.855 Y-30.644
G1 X1.367 Y-31.797
G0 Z5.000
G0 X1.366 Y-31.804
G1 Z0.000
G1 X2.370 Y-31.736
G1 X2.706 Y-32.007
G1 X2.816 Y-32.573
G1 X2.680 Y-33.198
G1 X2.282 Y-33.644
G1 X1.601 Y-33.671
G1 X0.742 Y-34.511
G1 X0.352 Y-34.687
G1 X0.000 Y-34.667
G0 Z5.000
G0 X1.367 Y-31.797
G1 Z0.000
G1 X0.625 Y-32.812
G1 X0.273 Y-33.046
G1 X0.195 Y-33.183
G0 Z5.000
G0 X0.664 Y-33.085
G1 Z0.000
G1 X0.781 Y-33.085
G1 X1.601 Y-33.671
G0 Z5.000
G0 X3.554 Y-30.352
G1 Z0.000
G1 X3.535 Y-32.246
G1 X3.437 Y-32.793
G1 X3.261 Y-33.144
G0 Z5.000
G0 X1.621 Y-33.652
G1 Z0.000
G1 X2.017 Y-33.986
G1 X2.434 Y-34.232
G1 X3.802 Y-34.840
G1 X4.313 Y-35.000
G1 X4.679 Y-34.742
G0 Z5.000
G0 X4.003 Y-31.992
G1 Z0.000
G1 X4.511 Y-32.461
G0 Z5.000
G0 X7.632 Y-30.000
G1 Z0.000
G1 X7.534 Y-30.644
G1 X7.046 Y-31.797
G0 Z5.000
G0 X7.045 Y-31.804
G1 Z0.000
G1 X8.049 Y-31.736
G1 X8.385 Y-32.007
G1 X8.495 Y-32.573
G1 X8.360 Y-33.198
G1 X7.961 Y-33.644
G1 X7.281 Y-33.671
G1 X6.421 Y-34.511
G1 X6.031 Y-34.687
G1 X5.679 Y-34.667
G0 Z5.000
G0 X7.046 Y-31.797
G1 Z0.000
G1 X6.304 Y-32.812
G1 X5.953 Y-33.046
G1 X5.874 Y-33.183
G0 Z5.000
G0 X6.343 Y-33.085
G1 Z0.000
G1 X6.460 Y-33.085
G1 X7.281 Y-33.671
G0 Z5.000
G0 X9.233 Y-30.352
G1 Z0.000
G1 X9.214 Y-32.246
G1 X9.116 Y-32.793
G1 X8.940 Y-33.144
G0 Z5.000
G0 X7.300 Y-33.652
G1 Z0.000
G1 X7.696 Y-33.986
G1 X8.113 Y-34.232
G1 X9.481 Y-34.840
G1 X9.993 Y-35.000
G1 X10.358 Y-34.742
G0 Z5.000
G0 X9.682 Y-31.992
G1 Z0.000
G1 X10.190 Y-32.461
G0 Z5.000
G0 X11.541 Y-31.593
G1 Z0.000
G1 X11.611 Y-32.225
G1 X11.596 Y-32.910
G1 X11.544 Y-33.246
G1 X11.358 Y-33.864
G0 Z5.000
G0 X11.946 Y-30.340
G1 Z0.000
G1 X12.447 Y-30.764
G0 Z5.000
G0 X13.665 Y-30.172
G1 Z0.000
G1 X14.565 Y-30.000
G1 X15.168 Y-30.531
G1 X15.070 Y-31.456
G1 X15.106 Y-33.290
G1 X15.004 Y-34.192
G1 X14.615 Y-35.000
G0 Z5.000
G0 X12.408 Y-31.681
G1 Z0.000
G1 X13.108 Y-31.606
G1 X14.006 Y-31.330
G0 Z5.000
G0 X12.986 Y-31.843
G1 Z0.000
G1 X12.852 Y-33.038
G0 Z5.000
G0 X13.719 Y-31.689
G1 Z0.000
G1 X13.738 Y-32.499
G1 X13.680 Y-32.634
G1 X13.719 Y-32.730
G1 X13.719 Y-33.270
G0 Z5.000
G0 X13.141 Y-32.229
G1 Z0.000
G1 X13.507 Y-32.210
G0 Z5.000
G0 X13.160 Y-32.614
G1 Z0.000
G1 X13.680 Y-32.634
G0 Z5.000
G0 X11.984 Y-33.443
G1 Z0.000
G1 X13.584 Y-33.270
G1 X13.700 Y-33.289
G0 Z5.000
G0 X13.738 Y-33.289
G1 Z0.000
G1 X13.700 Y-33.539
G1 X13.565 Y-33.771
G1 X13.565 Y-33.848
G0 Z5.000
G0 X13.738 Y-33.289
G1 Z0.000
G1 X14.605 Y-33.327
G0 Z5.000
G0 X16.262 Y-31.634
G1 Z0.000
G1 X16.168 Y-31.792
G1 X16.173 Y-31.947
G1 X16.375 Y-32.385
G1 X16.369 Y-32.522
G1 X16.259 Y-32.652
G0 Z5.000
G0 X16.659 Y-31.614
G1 Z0.000
G1 X16.946 Y-31.565
G1 X17.122 Y-31.613
G1 X17.200 Y-31.739
G1 X17.156 Y-32.550
G0 Z5.000
G0 X16.461 Y-32.789
G1 Z0.000
G1 X16.561 Y-32.829
G1 X16.999 Y-32.709
G1 X17.158 Y-32.550
G1 X17.318 Y-32.570
G0 Z5.000
G0 X18.493 Y-30.000
G1 Z0.000
G1 X18.593 Y-30.100
G1 X18.612 Y-30.199
G0 Z5.000
G0 X17.935 Y-30.637
G1 Z0.000
G1 X18.871 Y-30.498
G1 X19.150 Y-30.378
G1 X19.270 Y-30.398
G0 Z5.000
G0 X18.473 Y-30.578
G1 Z0.000
G1 X18.473 Y-30.757
G0 Z5.000
G0 X18.035 Y-31.355
G1 Z0.000
G1 X18.134 Y-31.394
G1 X18.493 Y-31.295
G1 X18.752 Y-31.076
G1 X19.270 Y-30.757
G1 X19.389 Y-30.757
G0 Z5.000
G0 X18.473 Y-30.757
G1 Z0.000
G1 X18.732 Y-31.076
G0 Z5.000
G0 X17.995 Y-31.673
G1 Z0.000
G1 X19.110 Y-31.534
G1 X19.688 Y-31.594
G1 X19.788 Y-31.673
G1 X19.867 Y-31.633
G1 X19.967 Y-31.673
G0 Z5.000
G0 X17.517 Y-31.614
G1 Z0.000
G1 X17.616 Y-32.211
G1 X17.597 Y-32.470
G0 Z5.000
G0 X18.613 Y-32.237
G1 Z0.000
G1 X18.802 Y-32.238
G1 X19.168 Y-32.131
G1 X19.503 Y-31.926
G1 X19.788 Y-31.677
G0 Z5.000
G0 X18.593 Y-32.112
G1 Z0.000
G1 X18.593 Y-32.590
G0 Z5.000
G0 X17.855 Y-32.530
G1 Z0.000
G1 X17.915 Y-33.327
G1 X17.756 Y-33.486
G0 Z5.000
G0 X18.154 Y-32.649
G1 Z0.000
G1 X18.573 Y-32.610
G0 Z5.000
G0 X18.592 Y-32.590
G1 Z0.000
G1 X19.308 Y-32.520
G1 X19.635 Y-32.666
G1 X19.659 Y-32.987
G1 X19.443 Y-33.291
G1 X19.109 Y-33.462
G1 X18.771 Y-33.467
G0 Z5.000
G0 X18.573 Y-32.610
G1 Z0.000
G1 X18.573 Y-33.924
G1 X18.413 Y-35.000
G0 Z5.000
G0 X23.191 Y-30.000
G1 Z0.000
G1 X23.072 Y-30.040
G1 X22.456 Y-30.894
G1 X22.417 Y-31.033
G1 X22.245 Y-31.126
G1 X21.657 Y-31.662
G1 X21.484 Y-31.731
G1 X21.281 Y-31.732
G0 Z5.000
G0 X22.419 Y-31.034
G1 Z0.000
G1 X22.856 Y-31.049
G1 X23.315 Y-30.993
G1 X23.698 Y-31.179
G1 X23.729 Y-31.555
G1 X23.463 Y-31.964
G1 X23.112 Y-32.269
G1 X22.697 Y-32.365
G0 Z5.000
G0 X22.310 Y-31.763
G1 Z0.000
G1 X22.175 Y-31.902
G1 X22.093 Y-32.085
G1 X21.888 Y-32.694
G1 X21.650 Y-33.031
G0 Z5.000
G0 X22.635 Y-31.668
G1 Z0.000
G1 X22.655 Y-31.748
G1 X22.913 Y-31.966
G0 Z5.000
G0 X21.503 Y-33.059
G1 Z0.000
G1 X21.664 Y-33.042
G1 X21.930 Y-33.075
G1 X23.041 Y-32.802
G1 X23.320 Y-32.841
G1 X23.593 Y-33.007
G0 Z5.000
G0 X23.590 Y-32.997
G1 Z0.000
G1 X23.819 Y-33.313
G1 X23.814 Y-33.729
G1 X23.711 Y-34.133
G1 X23.524 Y-34.496
G1 X23.259 Y-34.797
G1 X22.919 Y-35.000
G1 X22.529 Y-34.972
G0 Z5.000
G0 X20.967 Y-34.224
G1 Z0.000
G1 X21.248 Y-34.282
G1 X21.532 Y-34.271
G1 X21.816 Y-34.206
G1 X22.640 Y-33.881
G1 X22.894 Y-33.833
G0 Z5.000
G0 X2.430 Y-38.175
G1 Z0.000
G1 X2.470 Y-38.295
G1 X1.434 Y-39.590
G1 X0.398 Y-40.466
G1 X0.060 Y-40.586
G1 X0.000 Y-40.566
G0 Z5.000
G0 X1.470 Y-39.564
G1 Z0.000
G1 X1.578 Y-39.850
G1 X1.602 Y-40.172
G1 X1.561 Y-41.501
G1 X1.456 Y-41.820
G0 Z5.000
G0 X2.729 Y-37.000
G1 Z0.000
G1 X3.008 Y-37.339
G1 X2.988 Y-37.498
G0 Z5.000
G0 X1.255 Y-38.295
G1 Z0.000
G1 X2.251 Y-38.155
G1 X2.430 Y-38.175
G1 X2.550 Y-38.115
G1 X2.988 Y-38.076
G1 X3.725 Y-37.837
G0 Z5.000
G0 X3.147 Y-38.693
G1 Z0.000
G1 X2.809 Y-39.131
G1 X2.709 Y-39.351
G0 Z5.000
G0 X1.713 Y-40.008
G1 Z0.000
G1 X1.833 Y-40.028
G1 X2.092 Y-39.948
G1 X2.709 Y-39.351
G1 X3.466 Y-39.300
G1 X3.811 Y-39.357
G1 X4.041 Y-39.596
G1 X4.068 Y-39.940
G1 X3.801 Y-40.290
G1 X3.147 Y-40.546
G0 Z5.000
G0 X2.430 Y-40.088
G1 Z0.000
G1 X2.550 Y-40.088
G1 X3.287 Y-40.685
G0 Z5.000
G0 X3.167 Y-40.566
G1 Z0.000
G1 X2.908 Y-40.904
G1 X2.709 Y-41.084
G0 Z5.000
G0 X2.072 Y-40.625
G1 Z0.000
G1 X2.669 Y-41.084
G0 Z5.000
G0 X1.693 Y-41.721
G1 Z0.000
G1 X1.813 Y-41.741
G1 X2.092 Y-41.621
G1 X2.689 Y-41.084
G0 Z5.000
G0 X2.669 Y-41.084
G1 Z0.000
G1 X2.709 Y-41.084
G1 X3.280 Y-41.483
G1 X3.921 Y-41.769
G1 X4.565 Y-42.000
G1 X4.904 Y-41.965
G0 Z5.000
G0 X8.057 Y-37.000
G1 Z0.000
G1 X8.018 Y-37.119
G1 X8.235 Y-38.027
G0 Z5.000
G0 X6.911 Y-38.265
G1 Z0.000
G1 X7.030 Y-38.304
G1 X8.196 Y-38.087
G0 Z5.000
G0 X8.235 Y-38.027
G1 Z0.000
G1 X8.354 Y-38.027
G1 X8.769 Y-37.869
G1 X8.887 Y-37.889
G0 Z5.000
G0 X8.235 Y-38.027
G1 Z0.000
G1 X8.196 Y-38.087
G1 X8.176 Y-39.055
G1 X8.235 Y-39.173
G1 X8.136 Y-39.351
G1 X8.196 Y-39.687
G0 Z5.000
G0 X7.109 Y-38.857
G1 Z0.000
G1 X7.524 Y-39.213
G1 X7.820 Y-39.252
G0 Z5.000
G0 X8.235 Y-39.173
G1 Z0.000
G1 X8.433 Y-39.094
G1 X8.966 Y-38.679
G1 X9.045 Y-38.719
G0 Z5.000
G0 X7.326 Y-39.806
G1 Z0.000
G1 X7.465 Y-39.667
G1 X8.136 Y-39.351
G0 Z5.000
G0 X8.196 Y-39.687
G1 Z0.000
G1 X9.223 Y-39.351
G1 X9.342 Y-39.252
G0 Z5.000
G0 X5.904 Y-40.122
G1 Z0.000
G1 X6.022 Y-40.142
G1 X6.595 Y-40.043
G1 X7.326 Y-39.806
G1 X7.425 Y-39.865
G1 X7.563 Y-39.865
G1 X8.136 Y-39.766
G0 Z5.000
G0 X8.196 Y-39.687
G1 Z0.000
G1 X8.117 Y-39.766
G0 Z5.000
G0 X8.154 Y-39.749
G1 Z0.000
G1 X8.120 Y-41.082
G1 X7.954 Y-41.726
G1 X7.788 Y-42.000
G0 Z5.000
G0 X6.220 Y-41.584
G1 Z0.000
G1 X6.338 Y-41.604
G1 X6.615 Y-41.485
G1 X7.761 Y-40.477
G0 Z5.000
G0 X8.356 Y-40.631
G1 Z0.000
G1 X8.591 Y-40.675
G1 X8.808 Y-40.813
G1 X9.447 Y-41.387
G1 X9.689 Y-41.496
G1 X9.960 Y-41.496
G0 Z5.000
G0 X12.283 Y-37.358
G1 Z0.000
G1 X13.304 Y-37.260
G1 X14.287 Y-37.000
G1 X14.985 Y-37.525
G1 X14.562 Y-39.852
G1 X14.811 Y-40.873
G1 X15.363 Y-41.766
G1 X16.338 Y-42.000
G0 Z5.000
G0 X12.043 Y-37.029
G1 Z0.000
G1 X11.919 Y-39.098
G1 X11.838 Y-39.787
G1 X11.687 Y-40.465
G1 X11.434 Y-41.125
G1 X10.960 Y-41.538
G0 Z5.000
G0 X14.288 Y-38.185
G1 Z0.000
G1 X13.416 Y-39.166
G0 Z5.000
G0 X12.871 Y-38.534
G1 Z0.000
G1 X13.416 Y-39.166
G0 Z5.000
G0 X13.416 Y-39.188
G1 Z0.000
G1 X12.610 Y-40.081
G1 X11.912 Y-40.561
G1 X11.890 Y-40.670
G0 Z5.000
G0 X13.416 Y-39.209
G1 Z0.000
G1 X13.809 Y-39.645
G1 X14.179 Y-39.863
G1 X14.267 Y-40.016
G0 Z5.000
G0 X16.512 Y-41.826
G1 Z0.000
G1 X16.338 Y-42.000
G0 Z5.000
G0 X17.619 Y-38.940
G1 Z0.000
G1 X17.512 Y-39.328
G1 X17.813 Y-40.380
G1 X17.828 Y-40.750
G1 X17.760 Y-41.109
G1 X17.602 Y-41.437
G0 Z5.000
G0 X18.355 Y-37.471
G1 Z0.000
G1 X19.792 Y-37.279
G1 X20.816 Y-37.000
G0 Z5.000
G0 X19.625 Y-37.868
G1 Z0.000
G1 X19.625 Y-38.642
G1 X19.665 Y-38.821
G0 Z5.000
G0 X18.037 Y-39.039
G1 Z0.000
G1 X18.176 Y-39.079
G1 X19.645 Y-38.841
G1 X19.705 Y-40.190
G1 X19.645 Y-40.627
G1 X19.585 Y-40.766
G1 X19.614 Y-40.968
G1 X19.459 Y-41.398
G0 Z5.000
G0 X18.615 Y-39.991
G1 Z0.000
G1 X18.775 Y-39.980
G1 X18.941 Y-40.041
G1 X19.075 Y-40.227
G0 Z5.000
G0 X18.593 Y-40.845
G1 Z0.000
G1 X19.050 Y-40.905
G1 X19.466 Y-40.726
G1 X19.586 Y-40.766
G0 Z5.000
G0 X19.669 Y-38.814
G1 Z0.000
G1 X20.926 Y-38.708
G1 X21.513 Y-38.790
G1 X21.836 Y-39.187
G1 X21.891 Y-39.822
G1 X21.725 Y-40.542
G1 X21.386 Y-41.190
G1 X21.388 Y-41.504
G1 X21.233 Y-41.819
G1 X20.963 Y-42.000
G1 X20.797 Y-41.999
G0 Z5.000
G0 X20.697 Y-39.575
G1 Z0.000
G1 X20.677 Y-39.674
G1 X20.935 Y-40.032
G1 X20.935 Y-40.151
G1 X20.836 Y-40.210
G0 Z5.000
G0 X20.538 Y-40.726
G1 Z0.000
G1 X20.578 Y-40.845
G1 X21.034 Y-41.143
G1 X21.392 Y-41.203
G0 Z5.000
G0 X25.413 Y-37.000
G1 Z0.000
G1 X25.354 Y-37.453
G1 X25.394 Y-37.591
G0 Z5.000
G0 X24.191 Y-37.808
G1 Z0.000
G1 X24.309 Y-37.848
G1 X25.315 Y-37.670
G1 X25.295 Y-37.966
G1 X25.216 Y-38.084
G1 X25.137 Y-38.104
G0 Z5.000
G0 X25.315 Y-37.670
G1 Z0.000
G1 X25.394 Y-37.591
G1 X25.551 Y-37.591
G1 X25.926 Y-37.434
G1 X26.005 Y-37.473
G0 Z5.000
G0 X24.664 Y-38.360
G1 Z0.000
G1 X24.783 Y-38.400
G1 X25.433 Y-38.262
G1 X25.551 Y-38.301
G0 Z5.000
G0 X24.211 Y-38.991
G1 Z0.000
G1 X25.675 Y-38.775
G1 X26.075 Y-38.894
G1 X26.036 Y-39.266
G1 X25.646 Y-39.587
G1 X25.196 Y-39.661
G1 X24.999 Y-39.760
G1 X24.802 Y-39.799
G1 X24.723 Y-39.760
G0 Z5.000
G0 X25.315 Y-39.149
G1 Z0.000
G1 X25.295 Y-39.365
G1 X25.157 Y-39.563
G1 X25.196 Y-39.661
G0 Z5.000
G0 X24.605 Y-39.267
G1 Z0.000
G1 X24.570 Y-39.750
G1 X24.461 Y-40.231
G1 X24.281 Y-40.694
G1 X24.032 Y-41.120
G1 X23.715 Y-41.492
G1 X23.334 Y-41.791
G1 X22.891 Y-42.000
G0 Z5.000
G0 X2.652 Y-44.000
G1 Z0.000
G1 X2.630 Y-44.952
G0 Z5.000
G0 X3.831 Y-44.204
G1 Z0.000
G1 X3.740 Y-44.589
G1 X3.763 Y-44.748
G0 Z5.000
G0 X2.630 Y-44.952
G1 Z0.000
G1 X3.672 Y-44.839
G1 X3.627 Y-45.292
G1 X3.446 Y-45.632
G0 Z5.000
G0 X3.763 Y-44.748
G1 Z0.000
G1 X3.672 Y-44.839
G0 Z5.000
G0 X3.763 Y-44.748
G1 Z0.000
G1 X3.944 Y-44.748
G1 X4.511 Y-44.567
G1 X4.624 Y-44.612
G0 Z5.000
G0 X1.700 Y-45.088
G1 Z0.000
G1 X2.607 Y-44.975
G1 X2.630 Y-45.655
G1 X2.766 Y-45.882
G0 Z5.000
G0 X0.000 Y-47.967
G1 Z0.000
G1 X0.385 Y-47.944
G1 X1.337 Y-47.332
G1 X2.766 Y-45.882
G1 X2.879 Y-45.882
G0 Z5.000
G0 X3.157 Y-47.899
G1 Z0.000
G1 X3.391 Y-48.565
G1 X3.945 Y-48.934
G1 X4.647 Y-49.000
G1 X5.411 Y-48.935
G1 X5.870 Y-48.541
G1 X5.814 Y-47.795
G1 X5.622 Y-47.108
G1 X5.305 Y-46.512
G0 Z5.000
G0 X3.151 Y-46.811
G1 Z0.000
G1 X3.174 Y-47.627
G1 X3.242 Y-47.808
G0 Z5.000
G0 X4.670 Y-46.788
G1 Z0.000
G1 X4.556 Y-46.766
G1 X3.378 Y-47.786
G1 X3.242 Y-47.808
G1 X3.151 Y-47.899
G0 Z5.000
G0 X1.882 Y-47.196
G1 Z0.000
G1 X1.904 Y-48.942
G0 Z5.000
G0 X2.516 Y-47.944
G1 Z0.000
G1 X2.924 Y-47.967
G1 X3.151 Y-47.899
G0 Z5.000
G0 X7.854 Y-44.000
G1 Z0.000
G1 X7.913 Y-44.709
G0 Z5.000
G0 X8.838 Y-44.492
G1 Z0.000
G1 X9.567 Y-44.295
G1 X9.685 Y-44.315
G0 Z5.000
G0 X8.858 Y-44.079
G1 Z0.000
G1 X8.838 Y-44.492
G0 Z5.000
G0 X6.870 Y-44.866
G1 Z0.000
G1 X7.893 Y-44.728
G0 Z5.000
G0 X7.913 Y-44.709
G1 Z0.000
G1 X8.759 Y-44.591
G0 Z5.000
G0 X7.893 Y-44.728
G1 Z0.000
G1 X7.913 Y-45.161
G1 X7.952 Y-45.260
G1 X8.051 Y-45.319
G0 Z5.000
G0 X8.759 Y-44.591
G1 Z0.000
G1 X8.759 Y-44.906
G1 X8.622 Y-45.220
G1 X8.641 Y-45.339
G0 Z5.000
G0 X8.838 Y-44.492
G1 Z0.000
G1 X8.759 Y-44.591
G0 Z5.000
G0 X8.858 Y-45.280
G1 Z0.000
G1 X8.878 Y-45.378
G1 X8.523 Y-45.929
G1 X8.523 Y-46.008
G1 X8.073 Y-46.565
G1 X7.772 Y-46.732
G1 X7.598 Y-46.743
G0 Z5.000
G0 X7.067 Y-45.909
G1 Z0.000
G1 X7.165 Y-45.890
G1 X7.500 Y-46.185
G1 X7.519 Y-46.283
G0 Z5.000
G0 X8.523 Y-46.008
G1 Z0.000
G1 X8.838 Y-46.047
G1 X9.507 Y-46.008
G1 X9.626 Y-46.146
G1 X9.724 Y-46.146
G0 Z5.000
G0 X9.626 Y-46.146
G1 Z0.000
G1 X8.838 Y-46.953
G0 Z5.000
G0 X8.248 Y-46.795
G1 Z0.000
G1 X8.307 Y-46.756
G1 X8.740 Y-46.972
G1 X8.858 Y-46.953
G1 X8.956 Y-47.032
G1 X9.645 Y-47.307
G1 X10.433 Y-47.386
G0 Z5.000
G0 X8.759 Y-46.972
G1 Z0.000
G1 X8.425 Y-47.327
G1 X7.913 Y-47.642
G1 X7.756 Y-47.661
G1 X7.381 Y-47.976
G1 X7.381 Y-48.055
G1 X6.909 Y-48.587
G1 X6.929 Y-48.685
G0 Z5.000
G0 X7.145 Y-46.933
G1 Z0.000
G1 X7.421 Y-47.189
G1 X7.441 Y-47.307
G0 Z5.000
G0 X7.834 Y-47.268
G1 Z0.000
G1 X7.854 Y-47.386
G1 X7.736 Y-47.563
G1 X7.756 Y-47.661
G0 Z5.000
G0 X7.027 Y-47.976
G1 Z0.000
G1 X7.224 Y-47.937
G1 X7.381 Y-47.976
G0 Z5.000
G0 X8.425 Y-47.917
G1 Z0.000
G1 X8.484 Y-48.685
G1 X8.425 Y-48.803
G1 X8.326 Y-48.843
G0 Z5.000
G0 X8.838 Y-47.957
G1 Z0.000
G1 X9.253 Y-47.778
G1 X9.599 Y-47.915
G1 X9.683 Y-48.230
G1 X9.671 Y-48.602
G1 X9.486 Y-48.872
G1 X9.141 Y-49.000
G1 X8.779 Y-48.961
G0 Z5.000
G0 X13.371 Y-44.000
G1 Z0.000
G1 X13.351 Y-44.574
G1 X12.935 Y-45.525
G1 X12.935 Y-45.624
G1 X12.242 Y-46.615
G1 X11.826 Y-46.872
G1 X11.727 Y-46.852
G0 Z5.000
G0 X12.975 Y-45.664
G1 Z0.000
G1 X13.609 Y-45.585
G1 X13.985 Y-45.486
G1 X14.025 Y-45.525
G0 Z5.000
G0 X12.975 Y-45.664
G1 Z0.000
G1 X12.955 Y-45.763
G0 Z5.000
G0 X13.450 Y-46.258
G1 Z0.000
G1 X13.332 Y-46.357
G1 X13.193 Y-46.833
G1 X13.213 Y-46.951
G1 X13.104 Y-47.075
G1 X12.589 Y-48.083
G1 X12.371 Y-48.451
G1 X12.116 Y-48.761
G1 X11.808 Y-48.961
G1 X11.433 Y-49.000
G0 Z5.000
G0 X13.213 Y-46.951
G1 Z0.000
G1 X13.351 Y-46.971
G1 X13.866 Y-46.753
G1 X13.965 Y-46.773
G0 Z5.000
G0 X11.787 Y-47.229
G1 Z0.000
G1 X11.905 Y-47.268
G1 X12.935 Y-47.050
G1 X13.094 Y-47.070
G0 Z5.000
G0 X13.074 Y-47.783
G1 Z0.000
G1 X13.926 Y-48.635
G1 X14.183 Y-48.734
G1 X14.263 Y-48.695
G0 Z5.000
G0 X14.738 Y-46.238
G1 Z0.000
G1 X14.758 Y-47.466
G1 X14.718 Y-47.565
G1 X14.599 Y-47.645
G0 Z5.000
G0 X15.054 Y-46.318
G1 Z0.000
G1 X15.473 Y-46.205
G1 X15.745 Y-46.256
G1 X15.894 Y-46.429
G1 X15.942 Y-46.685
G1 X15.912 Y-46.983
G1 X15.707 Y-47.546
G0 Z5.000
G0 X14.976 Y-47.843
G1 Z0.000
G1 X15.709 Y-47.764
G0 Z5.000
G0 X18.970 Y-44.000
G1 Z0.000
G1 X17.966 Y-45.285
G1 X17.671 Y-45.580
G1 X17.340 Y-45.798
G1 X16.961 Y-45.905
G0 Z5.000
G0 X18.478 Y-44.985
G1 Z0.000
G1 X19.049 Y-45.044
G1 X19.108 Y-45.083
G1 X19.246 Y-45.201
G0 Z5.000
G0 X19.252 Y-45.203
G1 Z0.000
G1 X19.157 Y-45.625
G1 X18.916 Y-45.973
G1 X18.589 Y-46.275
G1 X17.881 Y-46.824
G1 X17.505 Y-47.010
G1 X17.073 Y-47.047
G0 Z5.000
G0 X17.472 Y-47.436
G1 Z0.000
G1 X17.915 Y-47.390
G1 X18.316 Y-47.212
G1 X18.681 Y-46.939
G1 X19.896 Y-45.596
G0 Z5.000
G0 X17.887 Y-45.871
G1 Z0.000
G1 X17.926 Y-45.989
G1 X18.498 Y-46.324
G0 Z5.000
G0 X19.128 Y-46.502
G1 Z0.000
G1 X19.207 Y-46.580
G1 X19.758 Y-46.659
G1 X19.916 Y-46.817
G0 Z5.000
G0 X19.920 Y-46.812
G1 Z0.000
G1 X19.918 Y-47.034
G1 X19.842 Y-47.223
G1 X19.268 Y-47.856
G1 X19.168 Y-48.037
G0 Z5.000
G0 X18.281 Y-47.506
G1 Z0.000
G1 X18.320 Y-47.624
G1 X18.990 Y-48.077
G0 Z5.000
G0 X16.942 Y-48.945
G1 Z0.000
G1 X17.291 Y-49.000
G1 X18.202 Y-48.675
G1 X18.770 Y-48.329
G1 X18.989 Y-48.075
G1 X19.187 Y-48.038
G1 X19.266 Y-48.097
G1 X19.345 Y-48.058
G0 Z5.000
G0 X22.906 Y-45.191
G1 Z0.000
G1 X22.935 Y-45.413
G1 X22.851 Y-45.602
G1 X22.108 Y-46.204
G1 X22.002 Y-46.360
G0 Z5.000
G0 X20.920 Y-49.000
G1 Z0.000
G1 X21.616 Y-48.961
G1 X22.251 Y-48.656
G1 X22.865 Y-48.276
G1 X23.410 Y-47.815
G1 X23.822 Y-47.208
G1 X24.174 Y-46.548
G1 X24.701 Y-46.129
G0 Z5.000
G0 X23.687 Y-44.000
G1 Z0.000
G1 X23.667 Y-44.279
G1 X23.771 Y-45.345
G1 X23.746 Y-45.694
G1 X23.493 Y-46.265
G0 Z5.000
G0 X24.245 Y-45.414
G1 Z0.000
G1 X24.344 Y-45.394
G1 X24.981 Y-45.732
G1 X25.200 Y-45.732
G0 Z5.000
M2
